{
  "type": "FeatureCollection",
  "features": [
    {
      "type": "Feature",
      "properties": {
        "norad_id": 28899,
        "name": "INMARSAT 4-F2 (SOUTHPAN/PRN 122)",
        "group": "gnss",
        "lat": 3.676584351470469,
        "lon": 92.34004210638675,
        "alt_km": 35796.07451862216,
        "timestamp": "2025-12-20T14:38:02.212477+00:00",
        "meta_object_name": "INMARSAT 4-F2 (SOUTHPAN/PRN 122)",
        "meta_object_id": "2005-044A",
        "meta_epoch": "2025-12-19T22:30:21.311424",
        "meta_mean_motion": 1.00271324,
        "meta_eccentricity": 0.00024243,
        "meta_inclination": 4.8606,
        "meta_ra_of_asc_node": 43.704,
        "meta_arg_of_pericenter": 227.0596,
        "meta_mean_anomaly": 299.1058,
        "meta_ephemeris_type": 0,
        "meta_classification_type": "U",
        "meta_norad_cat_id": 28899,
        "meta_element_set_no": 999,
        "meta_rev_at_epoch": 7372,
        "meta_bstar": 0,
        "meta_mean_motion_dot": -2.4e-06,
        "meta_mean_motion_ddot": 0,
        "tle_line1": "1 28899U 05044A   25353.93774666 -.00000240  00000+0  00000+0 0  9990",
        "tle_line2": "2 28899   4.8606  43.7040 0002424 227.0596 299.1058  1.00271324 73726"
      },
      "geometry": {
        "type": "Point",
        "coordinates": [
          92.34004210638675,
          3.676584351470469
        ]
      }
    },
    {
      "type": "Feature",
      "properties": {
        "norad_id": 29486,
        "name": "GPS BIIRM-2 (PRN 31)",
        "group": "gnss",
        "lat": 52.68501951807079,
        "lon": -133.1331900763616,
        "alt_km": 19918.1480246158,
        "timestamp": "2025-12-20T14:38:02.212490+00:00",
        "meta_object_name": "GPS BIIRM-2 (PRN 31)",
        "meta_object_id": "2006-042A",
        "meta_epoch": "2025-12-19T11:20:28.184352",
        "meta_mean_motion": 2.00553919,
        "meta_eccentricity": 0.0107309,
        "meta_inclination": 54.695,
        "meta_ra_of_asc_node": 158.4736,
        "meta_arg_of_pericenter": 52.1217,
        "meta_mean_anomaly": 283.3875,
        "meta_ephemeris_type": 0,
        "meta_classification_type": "U",
        "meta_norad_cat_id": 29486,
        "meta_element_set_no": 999,
        "meta_rev_at_epoch": 14078,
        "meta_bstar": 0,
        "meta_mean_motion_dot": 6.9e-07,
        "meta_mean_motion_ddot": 0,
        "tle_line1": "1 29486U 06042A   25353.47254843  .00000069  00000+0  00000+0 0  9999",
        "tle_line2": "2 29486  54.6950 158.4736 0107309  52.1217 283.3875  2.00553919140782"
      },
      "geometry": {
        "type": "Point",
        "coordinates": [
          -133.1331900763616,
          52.68501951807079
        ]
      }
    },
    {
      "type": "Feature",
      "properties": {
        "norad_id": 29601,
        "name": "GPS BIIRM-3 (PRN 12)",
        "group": "gnss",
        "lat": 35.02286030983144,
        "lon": 11.664917881794146,
        "alt_km": 20019.610620040923,
        "timestamp": "2025-12-20T14:38:02.212503+00:00",
        "meta_object_name": "GPS BIIRM-3 (PRN 12)",
        "meta_object_id": "2006-052A",
        "meta_epoch": "2025-12-19T22:13:29.754912",
        "meta_mean_motion": 2.00574126,
        "meta_eccentricity": 0.00879643,
        "meta_inclination": 54.9691,
        "meta_ra_of_asc_node": 221.1129,
        "meta_arg_of_pericenter": 87.52,
        "meta_mean_anomaly": 273.5849,
        "meta_ephemeris_type": 0,
        "meta_classification_type": "U",
        "meta_norad_cat_id": 29601,
        "meta_element_set_no": 999,
        "meta_rev_at_epoch": 13981,
        "meta_bstar": 0,
        "meta_mean_motion_dot": 7.6e-07,
        "meta_mean_motion_ddot": 0,
        "tle_line1": "1 29601U 06052A   25353.92603883  .00000076  00000+0  00000+0 0  9999",
        "tle_line2": "2 29601  54.9691 221.1129 0087964  87.5200 273.5849  2.00574126139815"
      },
      "geometry": {
        "type": "Point",
        "coordinates": [
          11.664917881794146,
          35.02286030983144
        ]
      }
    },
    {
      "type": "Feature",
      "properties": {
        "norad_id": 32260,
        "name": "GPS BIIRM-4 (PRN 15)",
        "group": "gnss",
        "lat": -53.76834238677031,
        "lon": 4.634159189114153,
        "alt_km": 20617.560617332252,
        "timestamp": "2025-12-20T14:38:02.212515+00:00",
        "meta_object_name": "GPS BIIRM-4 (PRN 15)",
        "meta_object_id": "2007-047A",
        "meta_epoch": "2025-12-19T17:36:20.095488",
        "meta_mean_motion": 2.00564284,
        "meta_eccentricity": 0.01640625,
        "meta_inclination": 53.9598,
        "meta_ra_of_asc_node": 87.4696,
        "meta_arg_of_pericenter": 85.3303,
        "meta_mean_anomaly": 276.5412,
        "meta_ephemeris_type": 0,
        "meta_classification_type": "U",
        "meta_norad_cat_id": 32260,
        "meta_element_set_no": 999,
        "meta_rev_at_epoch": 13321,
        "meta_bstar": 0,
        "meta_mean_motion_dot": -3.5e-07,
        "meta_mean_motion_ddot": 0,
        "tle_line1": "1 32260U 07047A   25353.73356592 -.00000035  00000+0  00000+0 0  9996",
        "tle_line2": "2 32260  53.9598  87.4696 0164062  85.3303 276.5412  2.00564284133213"
      },
      "geometry": {
        "type": "Point",
        "coordinates": [
          4.634159189114153,
          -53.76834238677031
        ]
      }
    },
    {
      "type": "Feature",
      "properties": {
        "norad_id": 32275,
        "name": "COSMOS 2433 (720)",
        "group": "gnss",
        "lat": 8.547237475827181,
        "lon": -34.18009759069255,
        "alt_km": 19134.617548610076,
        "timestamp": "2025-12-20T14:38:02.212527+00:00",
        "meta_object_name": "COSMOS 2433 (720)",
        "meta_object_id": "2007-052A",
        "meta_epoch": "2025-12-19T04:33:13.000320",
        "meta_mean_motion": 2.13104199,
        "meta_eccentricity": 0.0005237,
        "meta_inclination": 65.6796,
        "meta_ra_of_asc_node": 321.9886,
        "meta_arg_of_pericenter": 255.1824,
        "meta_mean_anomaly": 104.7517,
        "meta_ephemeris_type": 0,
        "meta_classification_type": "U",
        "meta_norad_cat_id": 32275,
        "meta_element_set_no": 999,
        "meta_rev_at_epoch": 14122,
        "meta_bstar": 0,
        "meta_mean_motion_dot": -5.9e-07,
        "meta_mean_motion_ddot": 0,
        "tle_line1": "1 32275U 07052A   25353.18973380 -.00000059  00000+0  00000+0 0  9993",
        "tle_line2": "2 32275  65.6796 321.9886 0005237 255.1824 104.7517  2.13104199141226"
      },
      "geometry": {
        "type": "Point",
        "coordinates": [
          -34.18009759069255,
          8.547237475827181
        ]
      }
    },
    {
      "type": "Feature",
      "properties": {
        "norad_id": 32276,
        "name": "COSMOS 2432 (719)",
        "group": "gnss",
        "lat": -41.143869186360384,
        "lon": -61.198113257506925,
        "alt_km": 19105.928645050808,
        "timestamp": "2025-12-20T14:38:02.212538+00:00",
        "meta_object_name": "COSMOS 2432 (719)",
        "meta_object_id": "2007-052B",
        "meta_epoch": "2025-12-20T05:50:58.661664",
        "meta_mean_motion": 2.13103398,
        "meta_eccentricity": 0.00113391,
        "meta_inclination": 65.6947,
        "meta_ra_of_asc_node": 322.0776,
        "meta_arg_of_pericenter": 314.0223,
        "meta_mean_anomaly": 78.9513,
        "meta_ephemeris_type": 0,
        "meta_classification_type": "U",
        "meta_norad_cat_id": 32276,
        "meta_element_set_no": 999,
        "meta_rev_at_epoch": 14127,
        "meta_bstar": 0,
        "meta_mean_motion_dot": -5.3e-07,
        "meta_mean_motion_ddot": 0,
        "tle_line1": "1 32276U 07052B   25354.24373451 -.00000053  00000+0  00000+0 0  9999",
        "tle_line2": "2 32276  65.6947 322.0776 0011339 314.0223  78.9513  2.13103398141276"
      },
      "geometry": {
        "type": "Point",
        "coordinates": [
          -61.198113257506925,
          -41.143869186360384
        ]
      }
    },
    {
      "type": "Feature",
      "properties": {
        "norad_id": 32384,
        "name": "GPS BIIRM-5 (PRN 29)",
        "group": "gnss",
        "lat": 34.5874636506635,
        "lon": -50.04661409957526,
        "alt_km": 20217.48103083586,
        "timestamp": "2025-12-20T14:38:02.212551+00:00",
        "meta_object_name": "GPS BIIRM-5 (PRN 29)",
        "meta_object_id": "2007-062A",
        "meta_epoch": "2025-12-19T04:08:10.010976",
        "meta_mean_motion": 2.00577702,
        "meta_eccentricity": 0.00322663,
        "meta_inclination": 55.1765,
        "meta_ra_of_asc_node": 281.388,
        "meta_arg_of_pericenter": 162.2119,
        "meta_mean_anomaly": 283.9132,
        "meta_ephemeris_type": 0,
        "meta_classification_type": "U",
        "meta_norad_cat_id": 32384,
        "meta_element_set_no": 999,
        "meta_rev_at_epoch": 13190,
        "meta_bstar": 0,
        "meta_mean_motion_dot": -3.8e-07,
        "meta_mean_motion_ddot": 0,
        "tle_line1": "1 32384U 07062A   25353.17233809 -.00000038  00000+0  00000+0 0  9996",
        "tle_line2": "2 32384  55.1765 281.3880 0032266 162.2119 283.9132  2.00577702131904"
      },
      "geometry": {
        "type": "Point",
        "coordinates": [
          -50.04661409957526,
          34.5874636506635
        ]
      }
    }
  ]
}